STARLINK-36031          
1 66593U 25270F   26203.87940563  .00022835  00000+0  83618-3 0  9998
2 66593  43.0009  12.5071 0001770 269.7687  90.2962 15.27602771 38381
STARLINK-36032          
1 66594U 25270G   26203.51664100  .00027611  00000+0  10086-2 0  9995
2 66594  43.0037  14.9414 0001450 250.5605 109.5090 15.27599338 38136
STARLINK-35711          
1 66595U 25270H   26203.88326294  .00016816  00000+0  61891-3 0  9991
2 66595  42.9980  12.5309 0001170 270.3032  89.7686 15.27595311 38498
STARLINK-35811          
1 66596U 25270J   26203.85385265  .00032870  00000+0  11970-2 0  9992
2 66596  43.0045  13.1808 0001886 266.6242  93.4394 15.27626332 38484
STARLINK-35820          
1 66597U 25270K   26204.16281203  .00041486  00000+0  15081-2 0  9995
2 66597  42.9960  11.2003 0001352  51.8657 308.2316 15.27592690 38533
STARLINK-35981          
1 66598U 25270L   26204.19477776  .00018257  00000+0  67111-3 0  9993
2 66598  43.0035  10.5725 0001697 280.5996  79.4664 15.27591169 38286
STARLINK-35930          
1 66599U 25270M   26203.82558117  .00027584  00000+0  10077-2 0  9993
2 66599  42.9962  12.9660 0003413 257.5292 102.5178 15.27593498 38374
STARLINK-35980          
1 66600U 25270N   26204.17821747  .00016180  00000+0  59613-3 0  9997
2 66600  42.9995  11.3102 0001803 269.0332  91.0313 15.27584316 38328
STARLINK-35978          
1 66601U 25270P   26203.75891431  .00021572  00000+0  79085-3 0  9994
2 66601  43.0041  13.3275 0001836 270.6857  89.3784 15.27591428 38203
STARLINK-36050          
1 66602U 25270Q   26203.85002070  .00029247  00000+0  10676-2 0  9996
2 66602  43.0064  13.1509 0002197 278.4076  81.6526 15.27595732 38275
STARLINK-36048          
1 66603U 25270R   26203.81016705  .00030497  00000+0  11124-2 0  9991
2 66603  43.0011  12.8439 0001893 276.7558  83.3078 15.27602683 38279
STARLINK-35977          
1 66604U 25270S   26203.86397973  .00023902  00000+0  87441-3 0  9995
2 66604  43.0062  12.3896 0002680 280.5861  79.4688 15.27611733 38384
STARLINK-36052          
1 66605U 25270T   26203.83970649  .00029289  00000+0  10683-2 0  9997
2 66605  43.0033  13.0644 0002594 272.1211  87.9343 15.27620939 38371
STARLINK-36063          
1 66606U 25270U   26203.81530410  .00019264  00000+0  70724-3 0  9999
2 66606  43.0014  12.8796 0001710 276.3585  83.7072 15.27602986 38370
STARLINK-35993          
1 66607U 25270V   26203.77176650  .00009366  00000+0  34912-3 0  9998
2 66607  43.0025  13.4161 0001377 279.9886  80.0811 15.27611342 38263
STARLINK-36036          
1 66608U 25270W   26204.25002315 -.00004014  00000+0 -13636-3 0  9996
2 66608  43.0017  10.3706 0001537 273.0522 341.6616 15.27591516  5810
STARLINK-36034          
1 66609U 25270X   26203.79232069  .00022439  00000+0  82163-3 0  9996
2 66609  43.0078  13.5707 0002708 285.6771  74.3782 15.27611315 38203
STARLINK-35680          
1 66610U 25270Y   26204.15636881  .00016233  00000+0  59785-3 0  9998
2 66610  43.0028  11.1398 0002733 275.2252  84.8288 15.27593412 38537
STARLINK-35583          
1 66611U 25270Z   26203.56018520  .00018047  00000+0  66349-3 0  9996
2 66611  42.9995  14.4056 0001180 236.1948 123.8791 15.27592920 38445
STARLINK-36039          
1 66612U 25270AA  26203.84230168  .00025038  00000+0  91727-3 0  9998
2 66612  43.0031  13.0888 0001521 270.4206  89.6472 15.27545336 38370
STARLINK-36037          
1 66613U 25270AB  26204.15894113  .00015399  00000+0  56773-3 0  9991
2 66613  43.0044  11.1636 0002772 271.9739  88.0796 15.27590240 38423
STARLINK-36040          
1 66614U 25270AC  26204.18205805  .00005211  00000+0  19868-3 0  9995
2 66614  43.0038  11.3373 0001370 276.3805  83.6891 15.27591213 38263
STARLINK-35988          
1 66615U 25270AD  26202.51271523  .00008709  00000+0  32545-3 0  9993
2 66615  42.9974  20.3037 0001097 233.8660 126.2090 15.27598406 38010
STARLINK-35391          
1 66616U 25270AE  26203.78204519  .00015146  00000+0  55877-3 0  9991
2 66616  43.0079  13.4957 0002354 286.1316  73.9276 15.27581037 38475
STARLINK-35940          
1 66617U 25271A   26204.07950136  .00019334  00000+0  66309-3 0  9994
2 66617  53.1586 231.1959 0000912  94.9916 265.1189 15.30204325 38295
STARLINK-35970          
1 66618U 25271B   26204.10576726  .00012451  00000+0  43171-3 0  9993
2 66618  53.1570 230.6358 0001626  69.7971 290.3205 15.30205839 38302
STARLINK-35951          
1 66619U 25271C   26202.12427912  .00010895  00000+0  37930-3 0  9992
2 66619  53.1574 240.3190 0000871  82.2147 277.8953 15.30210280 37995
STARLINK-35936          
1 66620U 25271D   26204.25002315 -.00012844  00000+0 -36970-3 0  9997
2 66620  53.1601 230.3754 0001244  81.6206 151.7563 15.34395196  5870
STARLINK-35847          
1 66621U 25271E   26204.08583011  .00018567  00000+0  63770-3 0  9990
2 66621  53.1583 231.2197 0001193  81.4451 278.6685 15.30187247 38292
STARLINK-35950          
1 66622U 25271F   26204.08161247  .00015168  00000+0  52283-3 0  9995
2 66622  53.1587 231.2065 0001325  76.6279 283.4869 15.30222204 38293
