OBJECT_NAME,OBJECT_ID,EPOCH,MEAN_MOTION,ECCENTRICITY,INCLINATION,RA_OF_ASC_NODE,ARG_OF_PERICENTER,MEAN_ANOMALY,EPHEMERIS_TYPE,CLASSIFICATION_TYPE,NORAD_CAT_ID,ELEMENT_SET_NO,REV_AT_EPOCH,BSTAR,MEAN_MOTION_DOT,MEAN_MOTION_DDOT
STARLINK-36031,2025-270F,2026-07-22T21:06:20.646432,15.27602771,.000177,43.0009,12.5071,269.7687,90.2962,0,U,66593,999,3838,.83618337E-3,.22835E-3,0
STARLINK-36032,2025-270G,2026-07-22T12:23:57.782400,15.27599338,.00014509,43.0037,14.9414,250.5605,109.5090,0,U,66594,999,3813,.10085576E-2,.27611E-3,0
STARLINK-35711,2025-270H,2026-07-22T21:11:53.918016,15.27595311,.000117,42.9980,12.5309,270.3032,89.7686,0,U,66595,999,3849,.61890639E-3,.16816E-3,0
STARLINK-35811,2025-270J,2026-07-22T20:29:32.868960,15.27626332,.00018862,43.0045,13.1808,266.6242,93.4394,0,U,66596,999,3848,.11969601E-2,.3287E-3,0
STARLINK-35820,2025-270K,2026-07-23T03:54:26.959392,15.27592690,.00013523,42.9960,11.2003,51.8657,308.2316,0,U,66597,999,3853,.15080565E-2,.41486E-3,0
STARLINK-35981,2025-270L,2026-07-23T04:40:28.798464,15.27591169,.00016979,43.0035,10.5725,280.5996,79.4664,0,U,66598,999,3828,.67110708E-3,.18257E-3,0
STARLINK-35930,2025-270M,2026-07-22T19:48:50.213088,15.27593498,.00034135,42.9962,12.9660,257.5292,102.5178,0,U,66599,999,3837,.10076519E-2,.27584E-3,0
STARLINK-35980,2025-270N,2026-07-23T04:16:37.989408,15.27584316,.00018032,42.9995,11.3102,269.0332,91.0313,0,U,66600,999,3832,.59613068E-3,.1618E-3,0
STARLINK-35978,2025-270P,2026-07-22T18:12:50.196384,15.27591428,.00018368,43.0041,13.3275,270.6857,89.3784,0,U,66601,999,3820,.79084966E-3,.21572E-3,0
STARLINK-36050,2025-270Q,2026-07-22T20:24:01.788480,15.27595732,.00021977,43.0064,13.1509,278.4076,81.6526,0,U,66602,999,3827,.10675958E-2,.29247E-3,0
STARLINK-36048,2025-270R,2026-07-22T19:26:38.433120,15.27602683,.00018932,43.0011,12.8439,276.7558,83.3078,0,U,66603,999,3827,.11124057E-2,.30497E-3,0
STARLINK-35977,2025-270S,2026-07-22T20:44:07.848672,15.27611733,.00026805,43.0062,12.3896,280.5861,79.4688,0,U,66604,999,3838,.87440677E-3,.23902E-3,0
STARLINK-36052,2025-270T,2026-07-22T20:09:10.640736,15.27620939,.0002594,43.0033,13.0644,272.1211,87.9343,0,U,66605,999,3837,.10682748E-2,.29289E-3,0
STARLINK-36063,2025-270U,2026-07-22T19:34:02.274240,15.27602986,.00017106,43.0014,12.8796,276.3585,83.7072,0,U,66606,999,3837,.70723934E-3,.19264E-3,0
STARLINK-35993,2025-270V,2026-07-22T18:31:20.625600,15.27611342,.00013771,43.0025,13.4161,279.9886,80.0811,0,U,66607,999,3826,.34911944E-3,.9366E-4,0
STARLINK-36036,2025-270W,2026-07-23T06:00:02.000160,15.27591516,.00015374,43.0017,10.3706,273.0522,341.6616,0,U,66608,999,581,-.13636081E-3,-.4014E-4,0
STARLINK-36034,2025-270X,2026-07-22T19:00:56.507616,15.27611315,.00027085,43.0078,13.5707,285.6771,74.3782,0,U,66609,999,3820,.82162681E-3,.22439E-3,0
STARLINK-35680,2025-270Y,2026-07-23T03:45:10.265184,15.27593412,.00027334,43.0028,11.1398,275.2252,84.8288,0,U,66610,999,3853,.59785365E-3,.16233E-3,0
STARLINK-35583,2025-270Z,2026-07-22T13:26:40.001280,15.27592920,.00011806,42.9995,14.4056,236.1948,123.8791,0,U,66611,999,3844,.66348575E-3,.18047E-3,0
STARLINK-36039,2025-270AA,2026-07-22T20:12:54.865152,15.27545336,.00015211,43.0031,13.0888,270.4206,89.6472,0,U,66612,999,3837,.91726776E-3,.25038E-3,0
STARLINK-36037,2025-270AB,2026-07-23T03:48:52.513632,15.27590240,.00027723,43.0044,11.1636,271.9739,88.0796,0,U,66613,999,3842,.56773047E-3,.15399E-3,0
STARLINK-36040,2025-270AC,2026-07-23T04:22:09.815520,15.27591213,.00013706,43.0038,11.3373,276.3805,83.6891,0,U,66614,999,3826,.19867814E-3,.5211E-4,0
STARLINK-35988,2025-270AD,2026-07-21T12:18:18.595872,15.27598406,.00010976,42.9974,20.3037,233.8660,126.2090,0,U,66615,999,3801,.32545231E-3,.8709E-4,0
STARLINK-35391,2025-270AE,2026-07-22T18:46:08.704416,15.27581037,.00023544,43.0079,13.4957,286.1316,73.9276,0,U,66616,999,3847,.55877127E-3,.15146E-3,0
STARLINK-35940,2025-271A,2026-07-23T01:54:28.917504,15.30204325,.0000912,53.1586,231.1959,94.9916,265.1189,0,U,66617,999,3829,.66309379E-3,.19334E-3,0
STARLINK-35970,2025-271B,2026-07-23T02:32:18.291264,15.30205839,.00016263,53.1570,230.6358,69.7971,290.3205,0,U,66618,999,3830,.4317124E-3,.12451E-3,0
STARLINK-35951,2025-271C,2026-07-21T02:58:57.715968,15.30210280,.00008719,53.1574,240.3190,82.2147,277.8953,0,U,66619,999,3799,.37930175E-3,.10895E-3,0
STARLINK-35936,2025-271D,2026-07-23T06:00:02.000160,15.34395196,.00012443,53.1601,230.3754,81.6206,151.7563,0,U,66620,999,587,-.3696994E-3,-.12844E-3,0
STARLINK-35847,2025-271E,2026-07-23T02:03:35.721504,15.30187247,.00011936,53.1583,231.2197,81.4451,278.6685,0,U,66621,999,3829,.63770069E-3,.18567E-3,0
STARLINK-35950,2025-271F,2026-07-23T01:57:31.317408,15.30222204,.00013254,53.1587,231.2065,76.6279,283.4869,0,U,66622,999,3829,.52283023E-3,.15168E-3,0
